[{"OBJECT_NAME":"ORBCOMM FM06","OBJECT_ID":"1997-084G","EPOCH":"2026-03-09T15:06:31.906944","MEAN_MOTION":14.47270413,"ECCENTRICITY":0.0001937,"INCLINATION":45.0122,"RA_OF_ASC_NODE":171.8858,"ARG_OF_PERICENTER":196.1809,"MEAN_ANOMALY":301.713,"EPHEMERIS_TYPE":0,"CLASSIFICATION_TYPE":"U","NORAD_CAT_ID":25118,"ELEMENT_SET_NO":999,"REV_AT_EPOCH":47996,"BSTAR":0.00064878,"MEAN_MOTION_DOT":2.251e-5,"MEAN_MOTION_DDOT":0},{"OBJECT_NAME":"FORMOSAT-5","OBJECT_ID":"2017-049A","EPOCH":"2026-03-09T21:06:30.002688","MEAN_MOTION":14.50821744,"ECCENTRICITY":0.00116882,"INCLINATION":98.2311,"RA_OF_ASC_NODE":146.3833,"ARG_OF_PERICENTER":35.9482,"MEAN_ANOMALY":324.2497,"EPHEMERIS_TYPE":0,"CLASSIFICATION_TYPE":"U","NORAD_CAT_ID":42920,"ELEMENT_SET_NO":999,"REV_AT_EPOCH":45227,"BSTAR":8.2289571e-5,"MEAN_MOTION_DOT":2.81e-6,"MEAN_MOTION_DDOT":0}]
